{"fetched_at":"2026-07-14T17:41:04.816Z","source":"https://celestrak.org/NORAD/elements/gp.php?NAME=SENTINEL&FORMAT=JSON","constellation":"sentinel-1","records":[{"OBJECT_NAME":"SENTINEL-1A","OBJECT_ID":"2014-016A","EPOCH":"2026-07-14T04:17:37.066272","CLASSIFICATION_TYPE":"U","MEAN_MOTION":14.59200607,"ECCENTRICITY":0.0001436,"INCLINATION":98.178,"RA_OF_ASC_NODE":202.3179,"ARG_OF_PERICENTER":87.1869,"MEAN_ANOMALY":272.9495,"EPHEMERIS_TYPE":0,"NORAD_CAT_ID":39634,"ELEMENT_SET_NO":999,"REV_AT_EPOCH":65395,"BSTAR":0.000014072,"MEAN_MOTION_DOT":2.1e-7,"MEAN_MOTION_DDOT":0},{"OBJECT_NAME":"SENTINEL-1B","OBJECT_ID":"2016-025A","EPOCH":"2026-07-14T03:45:32.065632","CLASSIFICATION_TYPE":"U","MEAN_MOTION":14.99283236,"ECCENTRICITY":0.0015553,"INCLINATION":98.0909,"RA_OF_ASC_NODE":256.9541,"ARG_OF_PERICENTER":40.2468,"MEAN_ANOMALY":319.9902,"EPHEMERIS_TYPE":0,"NORAD_CAT_ID":41456,"ELEMENT_SET_NO":999,"REV_AT_EPOCH":54782,"BSTAR":0.00006117,"MEAN_MOTION_DOT":0.00000683,"MEAN_MOTION_DDOT":0},{"OBJECT_NAME":"SENTINEL-1C","OBJECT_ID":"2024-235A","EPOCH":"2026-07-14T03:35:37.161888","CLASSIFICATION_TYPE":"U","MEAN_MOTION":14.59197451,"ECCENTRICITY":0.0001379,"INCLINATION":98.1824,"RA_OF_ASC_NODE":202.0749,"ARG_OF_PERICENTER":90.5656,"MEAN_ANOMALY":269.5701,"EPHEMERIS_TYPE":0,"NORAD_CAT_ID":62261,"ELEMENT_SET_NO":999,"REV_AT_EPOCH":8534,"BSTAR":0.000021498,"MEAN_MOTION_DOT":5.6e-7,"MEAN_MOTION_DDOT":0},{"OBJECT_NAME":"SENTINEL-1D","OBJECT_ID":"2025-251A","EPOCH":"2026-07-14T12:38:55.488768","CLASSIFICATION_TYPE":"U","MEAN_MOTION":14.59197121,"ECCENTRICITY":0.0001339,"INCLINATION":98.1841,"RA_OF_ASC_NODE":202.5022,"ARG_OF_PERICENTER":88.6116,"MEAN_ANOMALY":271.5237,"EPHEMERIS_TYPE":0,"NORAD_CAT_ID":66315,"ELEMENT_SET_NO":999,"REV_AT_EPOCH":3671,"BSTAR":-0.0000092963,"MEAN_MOTION_DOT":-9e-7,"MEAN_MOTION_DDOT":0}]}
